{
  "type": "FeatureCollection",
  "features": [
    {
      "type": "Feature",
      "properties": {
        "norad_id": 41890,
        "name": "CYGFM07",
        "group": "weather",
        "lat": 34.42432353389981,
        "lon": 124.20909234427035,
        "alt_km": 413.2290267134904,
        "timestamp": "2025-12-12T11:38:31.059262+00:00",
        "meta_object_name": "CYGFM07",
        "meta_object_id": "2016-078G",
        "meta_epoch": "2025-12-12T03:29:13.127712",
        "meta_mean_motion": 15.49961909,
        "meta_eccentricity": 0.0009811,
        "meta_inclination": 34.9485,
        "meta_ra_of_asc_node": 25.3509,
        "meta_arg_of_pericenter": 210.9906,
        "meta_mean_anomaly": 149.0238,
        "meta_ephemeris_type": 0,
        "meta_classification_type": "U",
        "meta_norad_cat_id": 41890,
        "meta_element_set_no": 999,
        "meta_rev_at_epoch": 49986,
        "meta_bstar": 0.00049342,
        "meta_mean_motion_dot": 0.00028596,
        "meta_mean_motion_ddot": 0,
        "tle_line1": "1 41890U 16078G   25346.14529083  .00028596  00000+0  49342-3 0  9990",
        "tle_line2": "2 41890  34.9485  25.3509 0009811 210.9906 149.0238 15.49961909499863"
      },
      "geometry": {
        "type": "Point",
        "coordinates": [
          124.20909234427035,
          34.42432353389981
        ]
      }
    },
    {
      "type": "Feature",
      "properties": {
        "norad_id": 41891,
        "name": "CYGFM03",
        "group": "weather",
        "lat": -31.505539002608696,
        "lon": -36.339184488936155,
        "alt_km": 419.2284049797863,
        "timestamp": "2025-12-12T11:38:31.059273+00:00",
        "meta_object_name": "CYGFM03",
        "meta_object_id": "2016-078H",
        "meta_epoch": "2025-12-12T04:11:45.249792",
        "meta_mean_motion": 15.49862705,
        "meta_eccentricity": 0.0009234,
        "meta_inclination": 34.9437,
        "meta_ra_of_asc_node": 27.0752,
        "meta_arg_of_pericenter": 198.9395,
        "meta_mean_anomaly": 161.0985,
        "meta_ephemeris_type": 0,
        "meta_classification_type": "U",
        "meta_norad_cat_id": 41891,
        "meta_element_set_no": 999,
        "meta_rev_at_epoch": 49984,
        "meta_bstar": 0.00048792,
        "meta_mean_motion_dot": 0.00028169,
        "meta_mean_motion_ddot": 0,
        "tle_line1": "1 41891U 16078H   25346.17482928  .00028169  00000+0  48792-3 0  9994",
        "tle_line2": "2 41891  34.9437  27.0752 0009234 198.9395 161.0985 15.49862705499841"
      },
      "geometry": {
        "type": "Point",
        "coordinates": [
          -36.339184488936155,
          -31.505539002608696
        ]
      }
    },
    {
      "type": "Feature",
      "properties": {
        "norad_id": 43010,
        "name": "FENGYUN 3D",
        "group": "weather",
        "lat": 32.66975054082581,
        "lon": 138.6172353688776,
        "alt_km": 823.8756649697061,
        "timestamp": "2025-12-12T11:38:31.059284+00:00",
        "meta_object_name": "FENGYUN 3D",
        "meta_object_id": "2017-072A",
        "meta_epoch": "2025-12-12T04:11:13.178976",
        "meta_mean_motion": 14.19684473,
        "meta_eccentricity": 9.14e-05,
        "meta_inclination": 98.9894,
        "meta_ra_of_asc_node": 312.4761,
        "meta_arg_of_pericenter": 185.3657,
        "meta_mean_anomaly": 174.7509,
        "meta_ephemeris_type": 0,
        "meta_classification_type": "U",
        "meta_norad_cat_id": 43010,
        "meta_element_set_no": 999,
        "meta_rev_at_epoch": 41845,
        "meta_bstar": 0.00021261,
        "meta_mean_motion_dot": 4.03e-06,
        "meta_mean_motion_ddot": 0,
        "tle_line1": "1 43010U 17072A   25346.17445809  .00000403  00000+0  21261-3 0  9994",
        "tle_line2": "2 43010  98.9894 312.4761 0000914 185.3657 174.7509 14.19684473418452"
      },
      "geometry": {
        "type": "Point",
        "coordinates": [
          138.6172353688776,
          32.66975054082581
        ]
      }
    },
    {
      "type": "Feature",
      "properties": {
        "norad_id": 43013,
        "name": "NOAA 20 (JPSS-1)",
        "group": "weather",
        "lat": -59.62936023362638,
        "lon": -61.960451673240506,
        "alt_km": 835.3722234177203,
        "timestamp": "2025-12-12T11:38:31.059296+00:00",
        "meta_object_name": "NOAA 20 (JPSS-1)",
        "meta_object_id": "2017-073A",
        "meta_epoch": "2025-12-12T01:46:41.013120",
        "meta_mean_motion": 14.1952546,
        "meta_eccentricity": 0.0002163,
        "meta_inclination": 98.7598,
        "meta_ra_of_asc_node": 282.3781,
        "meta_arg_of_pericenter": 88.0777,
        "meta_mean_anomaly": 272.0647,
        "meta_ephemeris_type": 0,
        "meta_classification_type": "U",
        "meta_norad_cat_id": 43013,
        "meta_element_set_no": 999,
        "meta_rev_at_epoch": 41792,
        "meta_bstar": 0.00010362,
        "meta_mean_motion_dot": 1.74e-06,
        "meta_mean_motion_ddot": 0,
        "tle_line1": "1 43013U 17073A   25346.07408580  .00000174  00000+0  10362-3 0  9997",
        "tle_line2": "2 43013  98.7598 282.3781 0002163  88.0777 272.0647 14.19525460417927"
      },
      "geometry": {
        "type": "Point",
        "coordinates": [
          -61.960451673240506,
          -59.62936023362638
        ]
      }
    },
    {
      "type": "Feature",
      "properties": {
        "norad_id": 43226,
        "name": "GOES 17",
        "group": "weather",
        "lat": 0.44464453298829887,
        "lon": 166.52494352759786,
        "alt_km": 35790.787711021105,
        "timestamp": "2025-12-12T11:38:31.059309+00:00",
        "meta_object_name": "GOES 17",
        "meta_object_id": "2018-022A",
        "meta_epoch": "2025-12-11T23:21:28.018944",
        "meta_mean_motion": 1.00271668,
        "meta_eccentricity": 0.0003289,
        "meta_inclination": 0.4581,
        "meta_ra_of_asc_node": 89.1115,
        "meta_arg_of_pericenter": 187.3128,
        "meta_mean_anomaly": 65.3748,
        "meta_ephemeris_type": 0,
        "meta_classification_type": "U",
        "meta_norad_cat_id": 43226,
        "meta_element_set_no": 999,
        "meta_rev_at_epoch": 2854,
        "meta_bstar": 0,
        "meta_mean_motion_dot": -1.74e-06,
        "meta_mean_motion_ddot": 0,
        "tle_line1": "1 43226U 18022A   25345.97324096 -.00000174  00000+0  00000+0 0  9990",
        "tle_line2": "2 43226   0.4581  89.1115 0003289 187.3128  65.3748  1.00271668 28547"
      },
      "geometry": {
        "type": "Point",
        "coordinates": [
          166.52494352759786,
          0.44464453298829887
        ]
      }
    },
    {
      "type": "Feature",
      "properties": {
        "norad_id": 43491,
        "name": "FENGYUN 2H",
        "group": "weather",
        "lat": -2.4549012302515405,
        "lon": -24.56511819896045,
        "alt_km": 35786.11621052011,
        "timestamp": "2025-12-12T11:38:31.059330+00:00",
        "meta_object_name": "FENGYUN 2H",
        "meta_object_id": "2018-050A",
        "meta_epoch": "2025-12-12T01:52:23.750688",
        "meta_mean_motion": 1.00271159,
        "meta_eccentricity": 0.000287,
        "meta_inclination": 2.5495,
        "meta_ra_of_asc_node": 81.3354,
        "meta_arg_of_pericenter": 166.252,
        "meta_mean_anomaly": 300.9008,
        "meta_ephemeris_type": 0,
        "meta_classification_type": "U",
        "meta_norad_cat_id": 43491,
        "meta_element_set_no": 999,
        "meta_rev_at_epoch": 2756,
        "meta_bstar": 0,
        "meta_mean_motion_dot": -1.21e-06,
        "meta_mean_motion_ddot": 0,
        "tle_line1": "1 43491U 18050A   25346.07805267 -.00000121  00000+0  00000+0 0  9993",
        "tle_line2": "2 43491   2.5495  81.3354 0002870 166.2520 300.9008  1.00271159 27567"
      },
      "geometry": {
        "type": "Point",
        "coordinates": [
          -24.56511819896045,
          -2.4549012302515405
        ]
      }
    },
    {
      "type": "Feature",
      "properties": {
        "norad_id": 43689,
        "name": "METOP-C",
        "group": "weather",
        "lat": 75.59792186874704,
        "lon": 7.6892614813391145,
        "alt_km": 812.444708225642,
        "timestamp": "2025-12-12T11:38:31.059342+00:00",
        "meta_object_name": "METOP-C",
        "meta_object_id": "2018-087A",
        "meta_epoch": "2025-12-12T04:31:00.917184",
        "meta_mean_motion": 14.21484166,
        "meta_eccentricity": 0.0001262,
        "meta_inclination": 98.6932,
        "meta_ra_of_asc_node": 43.9664,
        "meta_arg_of_pericenter": 39.5238,
        "meta_mean_anomaly": 320.6031,
        "meta_ephemeris_type": 0,
        "meta_classification_type": "U",
        "meta_norad_cat_id": 43689,
        "meta_element_set_no": 999,
        "meta_rev_at_epoch": 36826,
        "meta_bstar": 0.00016326,
        "meta_mean_motion_dot": 3.13e-06,
        "meta_mean_motion_ddot": 0,
        "tle_line1": "1 43689U 18087A   25346.18820506  .00000313  00000+0  16326-3 0  9991",
        "tle_line2": "2 43689  98.6932  43.9664 0001262  39.5238 320.6031 14.21484166368269"
      },
      "geometry": {
        "type": "Point",
        "coordinates": [
          7.6892614813391145,
          75.59792186874704
        ]
      }
    }
  ]
}